{"type": "FeatureCollection", "features": [{"type": "Feature", "id": "Gautam Buddha Nagar", "properties": {"name": "Gautam Buddha Nagar"}, "geometry": {"type": "Polygon", "coordinates": [[[77.6778258840885, 28.558218834683466], [77.68074906760685, 28.51509390819082], [77.60766947964807, 28.47196898169817], [77.61351584668476, 28.44321903070307], [77.58428401150124, 28.434594045404538], [77.65444041594169, 28.368469158115815], [77.66320996649675, 28.276469314931497], [77.74213592149225, 28.184469471747178], [77.75382865556566, 28.155719520752072], [77.73628955445554, 28.147094535453547], [77.72752000390048, 28.095344623662363], [77.68659543464356, 28.083844643264328], [77.66320996649675, 28.115469589358938], [77.63397813131323, 28.098219618761874], [77.59889992909301, 28.115469589358938], [77.56382172687279, 28.083844643264328], [77.47027985428552, 28.083844643264328], [77.49366532243234, 28.098219618761874], [77.49951168946905, 28.164344506050604], [77.53751307520761, 28.190219461946192], [77.49074213891399, 28.184469471747178], [77.48781895539564, 28.213219422742277], [77.51997397409751, 28.201719442344235], [77.54043625872598, 28.24771936393639], [77.46735667076717, 28.270719324732475], [77.4965885059507, 28.308094261026106], [77.46443348724883, 28.336844212021205], [77.49366532243234, 28.356969177717772], [77.47320303780387, 28.41446907970797], [77.39720026632673, 28.457594006200623], [77.33873659595969, 28.5093439179918], [77.29488884318442, 28.561093829782976], [77.29488884318442, 28.58121879547955], [77.33873659595969, 28.618593731773174], [77.31242794429453, 28.64446868766877], [77.32704386188628, 28.684718619061904], [77.39135389929002, 28.687593614161415], [77.39427708280837, 28.632968707270727], [77.46443348724883, 28.630093712171217], [77.5141276070608, 28.653093672967294], [77.55505217631773, 28.621468726872685], [77.56674491039114, 28.632968707270727], [77.62520858075817, 28.58409379057906], [77.64567086538663, 28.601343761176118], [77.6778258840885, 28.558218834683466]]]}}]}